ELFIN-A                 
1 43617U 18070E   21138.42713915  .00008197  00000-0  17449-3 0  9997
2 43617  93.0294 294.4242 0016022 112.0522 248.2439 15.44818574150152
CUBEBEL-1 (BSUSAT-1)    
1 43666U 18083E   21138.81107719  .00001840  00000-0  90380-4 0  9991
2 43666  97.4560 167.5516 0012660 273.3991 201.9726 15.19261823141515
CICERO 10               
1 43690U 18088A   21138.51475050  .00001699  00000-0  74303-4 0  9995
2 43690  85.0408 217.4087 0015600 152.4091 207.7982 15.21159448139673
IRVINE01                
1 43693U 18088D   21138.37979704  .00003611  00000-0  14087-3 0  9995
2 43693  85.0366 214.9370 0018768 131.8816 228.4033 15.25373662139857
PROXIMA I               
1 43694U 18088E   21138.51869279  .00001590  00000-0  65723-4 0  9995
2 43694  85.0350 215.0942 0020650 126.5766 233.7380 15.22888744139826
PROXIMA II              
1 43696U 18088G   21138.25406484  .00001489  00000-0  61462-4 0  9996
2 43696  85.0350 215.2775 0020690 127.4284 232.8846 15.22885433139776
FACSAT-1                
1 43721U 18096C   21138.88109374  .00002984  00000-0  10911-3 0  9994
2 43721  97.3844 216.2465 0017302  22.2808  88.8401 15.28736104137608
CENTAURI-2              
1 43722U 18096D   21138.46017894  .00003056  00000-0  10807-3 0  9999
2 43722  97.3874 216.5652 0016886  22.4822 337.7155 15.29821498137577
INNOSAT-2               
1 43738U 18096V   21138.78952286  .00005392  00000-0  16907-3 0  9996
2 43738  97.3917 220.4922 0021833  21.8382 128.6489 15.33258319137857
SIRION PATHFINDER-2     
1 43759U 18099B   21138.48489300  .00000659  00000-0  64491-4 0  9994
2 43759  97.6654 209.7125 0015368 138.9467 221.2913 14.95502034134005
CORVUS BC4              
1 43767U 18099K   21138.48491144  .00000481  00000-0  49175-4 0  9997
2 43767  97.6628 208.7418 0012724 142.5109 217.7002 14.94929258133958
MOVE-II                 
1 43780U 18099Y   21138.71211445  .00000363  00000-0  37497-4 0  9995
2 43780  97.6676 210.0543 0014210 148.9661 211.2402 14.95887585134025
SPACEBEE-7              
1 43816U 18099BL  21138.12582869  .00000484  00000-0  48061-4 0  9994
2 43816  97.6689 210.0610 0014463 136.2199 224.0172 14.96093707133526
SPACEBEE-5              
1 43817U 18099BM  21138.42322401  .00002144  00000-0  18967-3 0  9998
2 43817  97.6784 211.5246 0014686 132.9820 227.2636 14.97271295133616
SPACEBEE-6              
1 43818U 18099BN  21138.43187814  .00000736  00000-0  69805-4 0  9990
2 43818  97.6721 210.7200 0014512 133.5743 226.6686 14.96456289133736
SHIELDS 1               
1 43850U 18104B   21138.53825059  .00000771  00000-0  32096-4 0  9995
2 43850  85.0263 313.7322 0012467 280.4207  79.5630 15.21847108134421
STF-1                   
1 43852U 18104D   21138.51696875  .00001801  00000-0  76280-4 0  9995
2 43852  85.0302 314.4147 0012152 297.5495  62.4512 15.22351202134403
ZACUBE-2                
1 43907U 18111AH  21138.73542347  .00001054  00000-0  44547-4 0  9993
2 43907  97.2349  33.8751 0022672  42.0564  33.2241 15.25154884133102
LUME 1                  
1 43908U 18111AJ  21138.75945035  .00001873  00000-0  74828-4 0  9991
2 43908  97.2359  34.4168 0021744  40.6612 319.6245 15.26140678133146
AOBA VELOX-IV           
1 43940U 19003J   21138.36208396  .00003680  00000-0  14020-3 0  9992
2 43940  97.1802 183.5826 0024389 114.7823 245.5958 15.27044860129719
UNITE                   
1 44031U 98067PX  21138.17097704  .00040142  00000-0  25258-3 0  9998
2 44031  51.6398  61.4722 0001620 144.5000 215.6108 15.76282866130896
RAAVANA-1               
1 44329U 98067QE  21138.23475164  .00048100  00000-0  32483-3 0  9995
2 44329  51.6349  80.7467 0004581 139.7904 220.3435 15.74565786109390
UGUISU                  
1 44330U 98067QF  21138.22288955  .00046022  00000-0  31711-3 0  9990
2 44330  51.6309  81.3321 0004450 142.0345 218.0968 15.74119576109369
NEPALISAT-1             
1 44331U 98067QG  21138.22898852  .00047890  00000-0  32443-3 0  9991
2 44331  51.6314  80.6196 0004418 142.4689 217.6619 15.74495887109389
SPOOQY-1                
1 44332U 98067QH  21138.73895840  .00049929  00000-0  34882-3 0  9996
2 44332  51.6329  78.8163 0003885 141.9497 218.1777 15.73764788109410
SPACEBEE-9              
1 44370U 19037F   21138.14011206  .00026941  00000-0  38842-3 0  9998
2 44370  45.0012  31.4931 0004570  45.5567 314.5701 15.55558125106461
MOVE-IIB                
1 44398U 19038N   21138.89183171  .00002655  00000-0  15067-3 0  9992
2 44398  97.5824 103.0346 0026156  53.8679 306.4967 15.13555952103291
SONATE                  
1 44400U 19038Q   21138.61070956  .00001295  00000-0  77626-4 0  9991
2 44400  97.5873 102.6534 0026490  55.0902 305.2806 15.12502731103225
LUCKY-7                 
1 44406U 19038W   21138.42390499  .00001030  00000-0  61880-4 0  9995
2 44406  97.5875 102.7015 0025670  54.5759 305.7863 15.12892145103208
BEESAT 9                
1 44412U 19038AC  21138.44954143  .00001430  00000-0  83833-4 0  9992
2 44412  97.5860 102.7441 0023793  59.7481 300.6100 15.13200675102912
JAISAT-1                
1 44419U 19038F   21138.42889348  .00001416  00000-0  82002-4 0  9992
2 44419  97.5863 103.2472 0022613  58.2671 302.0760 15.13685043103259
KRAKSAT                 
1 44427U 98067QM  21138.72222597  .00022384  00000-0  21863-3 0  9994
2 44427  51.6396  91.5063 0004603 106.2389 323.9381 15.66083783106811
VCC A                   
1 44428U 98067QN  21138.25517008  .00041380  00000-0  30591-3 0  9992
2 44428  51.6356  84.7214 0003854 111.8279 248.3130 15.72522008106869
ENTRYSAT                
1 44429U 98067QP  21138.75779811  .00092002  00000-0  46411-3 0  9995
2 44429  51.6294  73.6383 0004365 118.8921 241.2519 15.80851710107053
VCC C                   
1 44430U 98067QQ  21135.86339224  .14395497  12494-4  36286-3 0  9998
2 44430  51.6031  72.7547 0006607 237.3053 122.7339 16.45570539105634
VCC B                   
1 44431U 98067QR  21138.21899471  .00043410  00000-0  31363-3 0  9993
2 44431  51.6325  84.3900 0004014 110.6091 249.5339 15.73040104106806
DUCHIFAT-3              
1 44854U 19089C   21138.76144044  .00000658  00000-0  58979-4 0  9998
2 44854  36.9656 276.2223 0008853 267.8205  92.1530 14.99471784 78649
EYESAT-NANO             
1 44877U 19092E   21138.49236512  .00001689  00000-0  86478-4 0  9999
2 44877  97.4607 322.5584 0011706 297.5007  62.5036 15.17921598 78396
ORBITAL FACTORY 2 (OF-2)
1 45113U 19071C   21138.34063336  .00002674  00000-0  87023-4 0  9998
2 45113  51.6410 183.4964 0011717 182.7024 177.3897 15.35578574 72549
M2 PATHFINDER           
1 45727U 20037E   21138.56131779 -.00000149  00000-0 -93160-5 0  9991
2 45727  97.7129 317.0303 0011680 268.5902  91.3995 14.91368977 47964
NETSAT-4                
1 46504U 20068U   21138.59009454 -.00000056  00000-0  35451-6 0  9992
2 46504  97.6828  75.6980 0010006 226.2842 133.7543 15.02066394 34750
NETSAT-3                
1 46505U 20068V   21138.39612090 -.00000315  00000-0 -19403-4 0  9993
2 46505  97.6902  75.4871 0007302 229.8686 130.1895 15.02035275 34734
NETSAT-1                
1 46506U 20068W   21137.60249799 -.00000054  00000-0  49240-6 0  9992
2 46506  97.6895  74.6775 0004517 228.8193 131.2585 15.02013267 34619
NETSAT-2                
1 46507U 20068X   21138.60488026  .00000165  00000-0  17179-4 0  9998
2 46507  97.6897  75.6696 0003769 219.3773 140.7174 15.01995081 34714
SPOC                    
1 46921U 98067RR  21138.23665651  .00008777  00000-0  14113-3 0  9993
2 46921  51.6412 126.6562 0002224 357.7815   2.3165 15.53838667 30155
BOBCAT-1                
1 46922U 98067RS  21138.53869901  .00013513  00000-0  20219-3 0  9999
2 46922  51.6420 124.1889 0002374  11.2029 348.9015 15.55306828 30182
NEUTRON-1               
1 46923U 98067RT  21138.44273408  .00008974  00000-0  14473-3 0  9991
2 46923  51.6410 125.7802 0002441  10.0320 350.0719 15.53720474 30225
1998-067RU              
1 46924U 98067RU  21138.25424096  .00022701  00000-0  29921-3 0  9990
2 46924  51.6397 123.7661 0003663  38.1815 321.9436 15.58318079 30185
DESCENT                 
1 46927U 98067RX  21138.51159113  .00009871  00000-0  15862-3 0  9999
2 46927  51.6410 125.4876 0002884  24.3388 335.7738 15.53692729 30143
SAI-1 NANOCONNECT-2     
1 47701U 21015C   21138.25163506 -.00000071  00000-0  00000-0 0  9990
2 47701  97.4575 213.0268 0012765  47.4724 312.7708 15.22556840 12020
WARP-01                 
1 47924U 98067SA  21138.35165887  .00010349  00000-0  18209-3 0  9994
2 47924  51.6412 129.6537 0005656   6.7222 353.3843 15.51065991 10126
RSP-01                  
1 47925U 98067SB  21138.60661547  .00009579  00000-0  16946-3 0  9996
2 47925  51.6418 128.3607 0001610 319.9926  40.0945 15.51017369 10144
TAUSAT-1                
1 47926U 98067SC  21138.39779011  .00011095  00000-0  19154-3 0  9999
2 47926  51.6414 129.2165 0002654 308.6877  51.3875 15.51528877 10103
TSURU                   
1 47927U 98067SD  21138.35072332  .00007490  00000-0  13477-3 0  9994
2 47927  51.6417 129.6515 0001568 312.6151  47.4706 15.50904258 10102
STARS-EC                
1 47928U 98067SE  21138.54620615  .00013102  00000-0  22949-3 0  9990
2 47928  51.6413 128.7033 0006453   9.6621 350.4491 15.50924692 10110
MAYA-2                  
1 47929U 98067SF  21138.41380310  .00007724  00000-0  13857-3 0  9993
2 47929  51.6418 129.3230 0001609 307.3977  52.6865 15.50937648 10078
HIROGARI (OPUSAT-II)    
1 47930U 98067SG  21138.40935292  .00011799  00000-0  20499-3 0  9996
2 47930  51.6417 129.2939 0001480 313.6931  46.3935 15.51278392 10119
GUARANISAT-1            
1 47931U 98067SH  21138.34881559  .00007458  00000-0  13401-3 0  9998
2 47931  51.6420 129.6395 0001590 304.9966  55.0874 15.50949395 10102
SMOG-1                  
1 47964U 21022AJ  21138.76733630  .00000859  00000-0  61256-4 0  9993
2 47964  97.5588  41.6223 0021582  48.7887  29.2387 15.06991817  7401
